<gpx xmlns:ns3="http://www.garmin.com/xmlschemas/TrackPointExtension/v1" xmlns="http://www.topografix.com/GPX/1/1" xmlns:xsi="http://www.w3.org/2001/XMLSchema-instance" xmlns:ns2="http://www.garmin.com/xmlschemas/GpxExtensions/v3" creator="Garmin Connect" version="1.1" xsi:schemaLocation="http://www.topografix.com/GPX/1/1 http://www.topografix.com/GPX/11.xsd">
  <extensions>
<distance>7737.8</distance>
<average_hr>132.0</average_hr>
<average_speed>2.8280000686645503</average_speed>
<start_time>2024-06-15T03:42:00+00:00</start_time>
<end_time>2024-06-15T04:27:36.055000+00:00</end_time>
<moving_time>2171.0</moving_time>
<elapsed_time>2736.055</elapsed_time>
</extensions>
<metadata>
    <link href="connect.garmin.com">
      <text>Garmin Connect</text>
    </link>
    <time>2024-06-15T03:42:00.000Z</time>
  </metadata>
  <trk>
    <name>港区 バイク</name>
    <type>cycling</type>
    <trkseg/>
  </trk>
</gpx>
