<?xml version="1.0" encoding="UTF-8"?>
<gpx xmlns="http://www.topografix.com/GPX/1/1" xmlns:gpxtpx="http://www.garmin.com/xmlschemas/TrackPointExtension/v1" xmlns:xsi="http://www.w3.org/2001/XMLSchema-instance" xsi:schemaLocation="http://www.topografix.com/GPX/1/1 http://www.topografix.com/GPX/1/1/gpx.xsd" version="1.1" creator="gpx.py -- https://github.com/tkrajina/gpxpy">
  <trk>
    <trkseg>
      <trkpt lat="35.70824618451297" lon="139.67704379931092">
        <ele>42</ele>
        <time>2025-12-27T06:19:57Z</time>
        <extensions>
          <gpxtpx:TrackPointExtension>
            <gpxtpx:hr>115</gpxtpx:hr>
          </gpxtpx:TrackPointExtension>
        </extensions>
      </trkpt>
      <trkpt lat="35.708236461505294" lon="139.67706056311727">
        <ele>42</ele>
        <time>2025-12-27T06:19:58Z</time>
        <extensions>
          <gpxtpx:TrackPointExtension>
            <gpxtpx:hr>116</gpxtpx:hr>
          </gpxtpx:TrackPointExtension>
        </extensions>
      </trkpt>
      <trkpt lat="35.70825397968292" lon="139.6771005447954">
        <ele>41.79999923706055</ele>
        <time>2025-12-27T06:19:59Z</time>
        <extensions>
          <gpxtpx:TrackPointExtension>
            <gpxtpx:hr>118</gpxtpx:hr>
          </gpxtpx:TrackPointExtension>
        </extensions>
      </trkpt>
      <trkpt lat="35.708262445405126" lon="139.67714622616768">
        <ele>41.79999923706055</ele>
        <time>2025-12-27T06:20:00Z</time>
        <extensions>
          <gpxtpx:TrackPointExtension>
            <gpxtpx:hr>119</gpxtpx:hr>
          </gpxtpx:TrackPointExtension>
        </extensions>
      </trkpt>
      <trkpt lat="35.70828205905855" lon="139.67718419618905">
        <ele>41.79999923706055</ele>
        <time>2025-12-27T06:20:01Z</time>
        <extensions>
          <gpxtpx:TrackPointExtension>
            <gpxtpx:hr>120</gpxtpx:hr>
          </gpxtpx:TrackPointExtension>
        </extensions>
      </trkpt>
      <trkpt lat="35.70828281342983" lon="139.6772279497236">
        <ele>41.599998474121094</ele>
        <time>2025-12-27T06:20:02Z</time>
        <extensions>
          <gpxtpx:TrackPointExtension>
            <gpxtpx:hr>121</gpxtpx:hr>
          </gpxtpx:TrackPointExtension>
        </extensions>
      </trkpt>
      <trkpt lat="35.7082827296108" lon="139.677258040756">
        <ele>41.599998474121094</ele>
        <time>2025-12-27T06:20:03Z</time>
        <extensions>
          <gpxtpx:TrackPointExtension>
            <gpxtpx:hr>122</gpxtpx:hr>
          </gpxtpx:TrackPointExtension>
        </extensions>
      </trkpt>
      <trkpt lat="35.70828474126756" lon="139.67730782926083">
        <ele>41.599998474121094</ele>
        <time>2025-12-27T06:20:04Z</time>
        <extensions>
          <gpxtpx:TrackPointExtension>
            <gpxtpx:hr>123</gpxtpx:hr>
          </gpxtpx:TrackPointExtension>
        </extensions>
      </trkpt>
      <trkpt lat="35.708288345485926" lon="139.6773466374725">
        <ele>41.400001525878906</ele>
        <time>2025-12-27T06:20:05Z</time>
        <extensions>
          <gpxtpx:TrackPointExtension>
            <gpxtpx:hr>124</gpxtpx:hr>
          </gpxtpx:TrackPointExtension>
        </extensions>
      </trkpt>
      <trkpt lat="35.708291782066226" lon="139.67738620005548">
        <ele>41.400001525878906</ele>
        <time>2025-12-27T06:20:06Z</time>
        <extensions>
          <gpxtpx:TrackPointExtension>
            <gpxtpx:hr>123</gpxtpx:hr>
          </gpxtpx:TrackPointExtension>
        </extensions>
      </trkpt>
      <trkpt lat="35.70829052478075" lon="139.67742727138102">
        <ele>41.400001525878906</ele>
        <time>2025-12-27T06:20:07Z</time>
        <extensions>
          <gpxtpx:TrackPointExtension>
            <gpxtpx:hr>122</gpxtpx:hr>
          </gpxtpx:TrackPointExtension>
        </extensions>
      </trkpt>
      <trkpt lat="35.70828868076205" lon="139.67745719477534">
        <ele>41.400001525878906</ele>
        <time>2025-12-27T06:20:08Z</time>
        <extensions>
          <gpxtpx:TrackPointExtension>
            <gpxtpx:hr>120</gpxtpx:hr>
          </gpxtpx:TrackPointExtension>
        </extensions>
      </trkpt>
      <trkpt lat="35.708291782066226" lon="139.67750036157668">
        <ele>41.400001525878906</ele>
        <time>2025-12-27T06:20:09Z</time>
        <extensions>
          <gpxtpx:TrackPointExtension>
            <gpxtpx:hr>121</gpxtpx:hr>
          </gpxtpx:TrackPointExtension>
        </extensions>
      </trkpt>
      <trkpt lat="35.70829345844686" lon="139.67753631994128">
        <ele>41.400001525878906</ele>
        <time>2025-12-27T06:20:10Z</time>
        <extensions>
          <gpxtpx:TrackPointExtension>
            <gpxtpx:hr>119</gpxtpx:hr>
          </gpxtpx:TrackPointExtension>
        </extensions>
      </trkpt>
      <trkpt lat="35.70829823613167" lon="139.67756800353527">
        <ele>41.20000076293945</ele>
        <time>2025-12-27T06:20:11Z</time>
        <extensions>
          <gpxtpx:TrackPointExtension>
            <gpxtpx:hr>118</gpxtpx:hr>
          </gpxtpx:TrackPointExtension>
        </extensions>
      </trkpt>
      <trkpt lat="35.70829932577908" lon="139.67761360108852">
        <ele>41.20000076293945</ele>
        <time>2025-12-27T06:20:12Z</time>
        <extensions>
          <gpxtpx:TrackPointExtension>
            <gpxtpx:hr>118</gpxtpx:hr>
          </gpxtpx:TrackPointExtension>
        </extensions>
      </trkpt>
      <trkpt lat="35.70830619893968" lon="139.67764561995864">
        <ele>41.20000076293945</ele>
        <time>2025-12-27T06:20:13Z</time>
        <extensions>
          <gpxtpx:TrackPointExtension>
            <gpxtpx:hr>118</gpxtpx:hr>
          </gpxtpx:TrackPointExtension>
        </extensions>
      </trkpt>
      <trkpt lat="35.70830997079611" lon="139.6776883676648">
        <ele>41.20000076293945</ele>
        <time>2025-12-27T06:20:14Z</time>
        <extensions>
          <gpxtpx:TrackPointExtension>
            <gpxtpx:hr>118</gpxtpx:hr>
          </gpxtpx:TrackPointExtension>
        </extensions>
      </trkpt>
      <trkpt lat="35.70830896496773" lon="139.6777290198952">
        <ele>41.20000076293945</ele>
        <time>2025-12-27T06:20:15Z</time>
        <extensions>
          <gpxtpx:TrackPointExtension>
            <gpxtpx:hr>119</gpxtpx:hr>
          </gpxtpx:TrackPointExtension>
        </extensions>
      </trkpt>
      <trkpt lat="35.708311814814806" lon="139.67775818891823">
        <ele>41.20000076293945</ele>
        <time>2025-12-27T06:20:16Z</time>
        <extensions>
          <gpxtpx:TrackPointExtension>
            <gpxtpx:hr>119</gpxtpx:hr>
          </gpxtpx:TrackPointExtension>
        </extensions>
      </trkpt>
      <trkpt lat="35.708310306072235" lon="139.67779917642474">
        <ele>41</ele>
        <time>2025-12-27T06:20:17Z</time>
        <extensions>
          <gpxtpx:TrackPointExtension>
            <gpxtpx:hr>119</gpxtpx:hr>
          </gpxtpx:TrackPointExtension>
        </extensions>
      </trkpt>
      <trkpt lat="35.708314161747694" lon="139.67783614061773">
        <ele>41</ele>
        <time>2025-12-27T06:20:18Z</time>
        <extensions>
          <gpxtpx:TrackPointExtension>
            <gpxtpx:hr>120</gpxtpx:hr>
          </gpxtpx:TrackPointExtension>
        </extensions>
      </trkpt>
      <trkpt lat="35.70831449702382" lon="139.67788039706647">
        <ele>40.79999923706055</ele>
        <time>2025-12-27T06:20:19Z</time>
        <extensions>
          <gpxtpx:TrackPointExtension>
            <gpxtpx:hr>120</gpxtpx:hr>
          </gpxtpx:TrackPointExtension>
        </extensions>
      </trkpt>
      <trkpt lat="35.708317682147026" lon="139.67792004346848">
        <ele>40.79999923706055</ele>
        <time>2025-12-27T06:20:20Z</time>
        <extensions>
          <gpxtpx:TrackPointExtension>
            <gpxtpx:hr>121</gpxtpx:hr>
          </gpxtpx:TrackPointExtension>
        </extensions>
      </trkpt>
      <trkpt lat="35.70831743068993" lon="139.67794887721539">
        <ele>40.79999923706055</ele>
        <time>2025-12-27T06:20:21Z</time>
        <extensions>
          <gpxtpx:TrackPointExtension>
            <gpxtpx:hr>121</gpxtpx:hr>
          </gpxtpx:TrackPointExtension>
        </extensions>
      </trkpt>
      <trkpt lat="35.708321537822485" lon="139.67799631878734">
        <ele>40.79999923706055</ele>
        <time>2025-12-27T06:20:22Z</time>
        <extensions>
          <gpxtpx:TrackPointExtension>
            <gpxtpx:hr>121</gpxtpx:hr>
          </gpxtpx:TrackPointExtension>
        </extensions>
      </trkpt>
      <trkpt lat="35.708326902240515" lon="139.67802884057164">
        <ele>40.599998474121094</ele>
        <time>2025-12-27T06:20:23Z</time>
        <extensions>
          <gpxtpx:TrackPointExtension>
            <gpxtpx:hr>121</gpxtpx:hr>
          </gpxtpx:TrackPointExtension>
        </extensions>
      </trkpt>
      <trkpt lat="35.70832916535437" lon="139.6780704986304">
        <ele>40.599998474121094</ele>
        <time>2025-12-27T06:20:24Z</time>
        <extensions>
          <gpxtpx:TrackPointExtension>
            <gpxtpx:hr>121</gpxtpx:hr>
          </gpxtpx:TrackPointExtension>
        </extensions>
      </trkpt>
      <trkpt lat="35.70833218283951" lon="139.67811282724142">
        <ele>40.599998474121094</ele>
        <time>2025-12-27T06:20:25Z</time>
        <extensions>
          <gpxtpx:TrackPointExtension>
            <gpxtpx:hr>121</gpxtpx:hr>
          </gpxtpx:TrackPointExtension>
        </extensions>
      </trkpt>
      <trkpt lat="35.70833545178175" lon="139.67814727686346">
        <ele>40.599998474121094</ele>
        <time>2025-12-27T06:20:26Z</time>
        <extensions>
          <gpxtpx:TrackPointExtension>
            <gpxtpx:hr>121</gpxtpx:hr>
          </gpxtpx:TrackPointExtension>
        </extensions>
      </trkpt>
      <trkpt lat="35.708344085142016" lon="139.6781891863793">
        <ele>40.400001525878906</ele>
        <time>2025-12-27T06:20:27Z</time>
        <extensions>
          <gpxtpx:TrackPointExtension>
            <gpxtpx:hr>121</gpxtpx:hr>
          </gpxtpx:TrackPointExtension>
        </extensions>
      </trkpt>
      <trkpt lat="35.70834425278008" lon="139.67821969650686">
        <ele>40.400001525878906</ele>
        <time>2025-12-27T06:20:28Z</time>
        <extensions>
          <gpxtpx:TrackPointExtension>
            <gpxtpx:hr>121</gpxtpx:hr>
          </gpxtpx:TrackPointExtension>
        </extensions>
      </trkpt>
      <trkpt lat="35.708352299407125" lon="139.67825263738632">
        <ele>40.400001525878906</ele>
        <time>2025-12-27T06:20:29Z</time>
        <extensions>
          <gpxtpx:TrackPointExtension>
            <gpxtpx:hr>121</gpxtpx:hr>
          </gpxtpx:TrackPointExtension>
        </extensions>
      </trkpt>
      <trkpt lat="35.70835607126355" lon="139.67828650027514">
        <ele>40.400001525878906</ele>
        <time>2025-12-27T06:20:30Z</time>
        <extensions>
          <gpxtpx:TrackPointExtension>
            <gpxtpx:hr>122</gpxtpx:hr>
          </gpxtpx:TrackPointExtension>
        </extensions>
      </trkpt>
      <trkpt lat="35.70835992693901" lon="139.67832027934492">
        <ele>40.20000076293945</ele>
        <time>2025-12-27T06:20:31Z</time>
        <extensions>
          <gpxtpx:TrackPointExtension>
            <gpxtpx:hr>122</gpxtpx:hr>
          </gpxtpx:TrackPointExtension>
        </extensions>
      </trkpt>
      <trkpt lat="35.708355316892266" lon="139.67836403287947">
        <ele>40.20000076293945</ele>
        <time>2025-12-27T06:20:32Z</time>
        <extensions>
          <gpxtpx:TrackPointExtension>
            <gpxtpx:hr>122</gpxtpx:hr>
          </gpxtpx:TrackPointExtension>
        </extensions>
      </trkpt>
      <trkpt lat="35.7083620224148" lon="139.67839378863573">
        <ele>40.20000076293945</ele>
        <time>2025-12-27T06:20:33Z</time>
        <extensions>
          <gpxtpx:TrackPointExtension>
            <gpxtpx:hr>122</gpxtpx:hr>
          </gpxtpx:TrackPointExtension>
        </extensions>
      </trkpt>
      <trkpt lat="35.70836487226188" lon="139.67843527905643">
        <ele>40</ele>
        <time>2025-12-27T06:20:34Z</time>
        <extensions>
          <gpxtpx:TrackPointExtension>
            <gpxtpx:hr>122</gpxtpx:hr>
          </gpxtpx:TrackPointExtension>
        </extensions>
      </trkpt>
      <trkpt lat="35.708372415974736" lon="139.67847132124007">
        <ele>40</ele>
        <time>2025-12-27T06:20:35Z</time>
        <extensions>
          <gpxtpx:TrackPointExtension>
            <gpxtpx:hr>122</gpxtpx:hr>
          </gpxtpx:TrackPointExtension>
        </extensions>
      </trkpt>
      <trkpt lat="35.7083675544709" lon="139.67851800844073">
        <ele>40</ele>
        <time>2025-12-27T06:20:36Z</time>
        <extensions>
          <gpxtpx:TrackPointExtension>
            <gpxtpx:hr>121</gpxtpx:hr>
          </gpxtpx:TrackPointExtension>
        </extensions>
      </trkpt>
      <trkpt lat="35.708373337984085" lon="139.67855589464307">
        <ele>40</ele>
        <time>2025-12-27T06:20:37Z</time>
        <extensions>
          <gpxtpx:TrackPointExtension>
            <gpxtpx:hr>122</gpxtpx:hr>
          </gpxtpx:TrackPointExtension>
        </extensions>
      </trkpt>
      <trkpt lat="35.70838297717273" lon="139.6785910986364">
        <ele>39.79999923706055</ele>
        <time>2025-12-27T06:20:38Z</time>
        <extensions>
          <gpxtpx:TrackPointExtension>
            <gpxtpx:hr>122</gpxtpx:hr>
          </gpxtpx:TrackPointExtension>
        </extensions>
      </trkpt>
      <trkpt lat="35.708383647724986" lon="139.67863627709448">
        <ele>39.599998474121094</ele>
        <time>2025-12-27T06:20:39Z</time>
        <extensions>
          <gpxtpx:TrackPointExtension>
            <gpxtpx:hr>122</gpxtpx:hr>
          </gpxtpx:TrackPointExtension>
        </extensions>
      </trkpt>
      <trkpt lat="35.70838741958141" lon="139.67867190018296">
        <ele>39.599998474121094</ele>
        <time>2025-12-27T06:20:40Z</time>
        <extensions>
          <gpxtpx:TrackPointExtension>
            <gpxtpx:hr>122</gpxtpx:hr>
          </gpxtpx:TrackPointExtension>
        </extensions>
      </trkpt>
      <trkpt lat="35.70838498882949" lon="139.67872286215425">
        <ele>39.599998474121094</ele>
        <time>2025-12-27T06:20:41Z</time>
        <extensions>
          <gpxtpx:TrackPointExtension>
            <gpxtpx:hr>123</gpxtpx:hr>
          </gpxtpx:TrackPointExtension>
        </extensions>
      </trkpt>
      <trkpt lat="35.70838666521013" lon="139.67876066453755">
        <ele>39.599998474121094</ele>
        <time>2025-12-27T06:20:42Z</time>
        <extensions>
          <gpxtpx:TrackPointExtension>
            <gpxtpx:hr>123</gpxtpx:hr>
          </gpxtpx:TrackPointExtension>
        </extensions>
      </trkpt>
      <trkpt lat="35.708386329934" lon="139.6787982992828">
        <ele>39.400001525878906</ele>
        <time>2025-12-27T06:20:43Z</time>
        <extensions>
          <gpxtpx:TrackPointExtension>
            <gpxtpx:hr>123</gpxtpx:hr>
          </gpxtpx:TrackPointExtension>
        </extensions>
      </trkpt>
      <trkpt lat="35.70838037878275" lon="139.67884020879865">
        <ele>39.400001525878906</ele>
        <time>2025-12-27T06:20:44Z</time>
        <extensions>
          <gpxtpx:TrackPointExtension>
            <gpxtpx:hr>124</gpxtpx:hr>
          </gpxtpx:TrackPointExtension>
        </extensions>
      </trkpt>
      <trkpt lat="35.708387503400445" lon="139.67887004837394">
        <ele>39.400001525878906</ele>
        <time>2025-12-27T06:20:45Z</time>
        <extensions>
          <gpxtpx:TrackPointExtension>
            <gpxtpx:hr>124</gpxtpx:hr>
          </gpxtpx:TrackPointExtension>
        </extensions>
      </trkpt>
      <trkpt lat="35.708395801484585" lon="139.67891371808946">
        <ele>39.400001525878906</ele>
        <time>2025-12-27T06:20:46Z</time>
        <extensions>
          <gpxtpx:TrackPointExtension>
            <gpxtpx:hr>124</gpxtpx:hr>
          </gpxtpx:TrackPointExtension>
        </extensions>
      </trkpt>
      <trkpt lat="35.70840451866388" lon="139.6789447311312">
        <ele>39.400001525878906</ele>
        <time>2025-12-27T06:20:47Z</time>
        <extensions>
          <gpxtpx:TrackPointExtension>
            <gpxtpx:hr>124</gpxtpx:hr>
          </gpxtpx:TrackPointExtension>
        </extensions>
      </trkpt>
      <trkpt lat="35.70841315202415" lon="139.67897289432585">
        <ele>39.400001525878906</ele>
        <time>2025-12-27T06:20:48Z</time>
        <extensions>
          <gpxtpx:TrackPointExtension>
            <gpxtpx:hr>124</gpxtpx:hr>
          </gpxtpx:TrackPointExtension>
        </extensions>
      </trkpt>
      <trkpt lat="35.70841549895704" lon="139.67901329509914">
        <ele>39.400001525878906</ele>
        <time>2025-12-27T06:20:49Z</time>
        <extensions>
          <gpxtpx:TrackPointExtension>
            <gpxtpx:hr>125</gpxtpx:hr>
          </gpxtpx:TrackPointExtension>
        </extensions>
      </trkpt>
      <trkpt lat="35.70842974819243" lon="139.6790401171893">
        <ele>39.400001525878906</ele>
        <time>2025-12-27T06:20:50Z</time>
        <extensions>
          <gpxtpx:TrackPointExtension>
            <gpxtpx:hr>125</gpxtpx:hr>
          </gpxtpx:TrackPointExtension>
        </extensions>
      </trkpt>
      <trkpt lat="35.70844064466655" lon="139.67908001504838">
        <ele>39.400001525878906</ele>
        <time>2025-12-27T06:20:51Z</time>
        <extensions>
          <gpxtpx:TrackPointExtension>
            <gpxtpx:hr>125</gpxtpx:hr>
          </gpxtpx:TrackPointExtension>
        </extensions>
      </trkpt>
      <trkpt lat="35.70845020003617" lon="139.6791125368327">
        <ele>39.400001525878906</ele>
        <time>2025-12-27T06:20:52Z</time>
        <extensions>
          <gpxtpx:TrackPointExtension>
            <gpxtpx:hr>125</gpxtpx:hr>
          </gpxtpx:TrackPointExtension>
        </extensions>
      </trkpt>
      <trkpt lat="35.708464197814465" lon="139.67914354987442">
        <ele>39.20000076293945</ele>
        <time>2025-12-27T06:20:53Z</time>
        <extensions>
          <gpxtpx:TrackPointExtension>
            <gpxtpx:hr>125</gpxtpx:hr>
          </gpxtpx:TrackPointExtension>
        </extensions>
      </trkpt>
      <trkpt lat="35.708480374887586" lon="139.67918856069446">
        <ele>39.20000076293945</ele>
        <time>2025-12-27T06:20:54Z</time>
        <extensions>
          <gpxtpx:TrackPointExtension>
            <gpxtpx:hr>125</gpxtpx:hr>
          </gpxtpx:TrackPointExtension>
        </extensions>
      </trkpt>
      <trkpt lat="35.708496468141675" lon="139.6792232617736">
        <ele>39.20000076293945</ele>
        <time>2025-12-27T06:20:55Z</time>
        <extensions>
          <gpxtpx:TrackPointExtension>
            <gpxtpx:hr>125</gpxtpx:hr>
          </gpxtpx:TrackPointExtension>
        </extensions>
      </trkpt>
      <trkpt lat="35.708511136472225" lon="139.67925494536757">
        <ele>39.20000076293945</ele>
        <time>2025-12-27T06:20:56Z</time>
        <extensions>
          <gpxtpx:TrackPointExtension>
            <gpxtpx:hr>126</gpxtpx:hr>
          </gpxtpx:TrackPointExtension>
        </extensions>
      </trkpt>
      <trkpt lat="35.70852052420378" lon="139.67928662896156">
        <ele>39.20000076293945</ele>
        <time>2025-12-27T06:20:57Z</time>
        <extensions>
          <gpxtpx:TrackPointExtension>
            <gpxtpx:hr>126</gpxtpx:hr>
          </gpxtpx:TrackPointExtension>
        </extensions>
      </trkpt>
      <trkpt lat="35.70853544399142" lon="139.67931546270847">
        <ele>39.20000076293945</ele>
        <time>2025-12-27T06:20:58Z</time>
        <extensions>
          <gpxtpx:TrackPointExtension>
            <gpxtpx:hr>126</gpxtpx:hr>
          </gpxtpx:TrackPointExtension>
        </extensions>
      </trkpt>
      <trkpt lat="35.70854323916137" lon="139.6793506667018">
        <ele>39.400001525878906</ele>
        <time>2025-12-27T06:20:59Z</time>
        <extensions>
          <gpxtpx:TrackPointExtension>
            <gpxtpx:hr>126</gpxtpx:hr>
          </gpxtpx:TrackPointExtension>
        </extensions>
      </trkpt>
      <trkpt lat="35.70855095051229" lon="139.67938218265772">
        <ele>39.400001525878906</ele>
        <time>2025-12-27T06:21:00Z</time>
        <extensions>
          <gpxtpx:TrackPointExtension>
            <gpxtpx:hr>127</gpxtpx:hr>
          </gpxtpx:TrackPointExtension>
        </extensions>
      </trkpt>
      <trkpt lat="35.708561930805445" lon="139.67941696755588">
        <ele>39.400001525878906</ele>
        <time>2025-12-27T06:21:01Z</time>
        <extensions>
          <gpxtpx:TrackPointExtension>
            <gpxtpx:hr>127</gpxtpx:hr>
          </gpxtpx:TrackPointExtension>
        </extensions>
      </trkpt>
      <trkpt lat="35.708575174212456" lon="139.67944454401731">
        <ele>39.400001525878906</ele>
        <time>2025-12-27T06:21:02Z</time>
        <extensions>
          <gpxtpx:TrackPointExtension>
            <gpxtpx:hr>127</gpxtpx:hr>
          </gpxtpx:TrackPointExtension>
        </extensions>
      </trkpt>
      <trkpt lat="35.70858556777239" lon="139.67947295866907">
        <ele>39.400001525878906</ele>
        <time>2025-12-27T06:21:03Z</time>
        <extensions>
          <gpxtpx:TrackPointExtension>
            <gpxtpx:hr>128</gpxtpx:hr>
          </gpxtpx:TrackPointExtension>
        </extensions>
      </trkpt>
      <trkpt lat="35.70859252475202" lon="139.67950665391982">
        <ele>39.400001525878906</ele>
        <time>2025-12-27T06:21:04Z</time>
        <extensions>
          <gpxtpx:TrackPointExtension>
            <gpxtpx:hr>128</gpxtpx:hr>
          </gpxtpx:TrackPointExtension>
        </extensions>
      </trkpt>
      <trkpt lat="35.70860417559743" lon="139.67953590676188">
        <ele>39.599998474121094</ele>
        <time>2025-12-27T06:21:05Z</time>
        <extensions>
          <gpxtpx:TrackPointExtension>
            <gpxtpx:hr>128</gpxtpx:hr>
          </gpxtpx:TrackPointExtension>
        </extensions>
      </trkpt>
      <trkpt lat="35.70861993357539" lon="139.6795700211078">
        <ele>39.599998474121094</ele>
        <time>2025-12-27T06:21:06Z</time>
        <extensions>
          <gpxtpx:TrackPointExtension>
            <gpxtpx:hr>129</gpxtpx:hr>
          </gpxtpx:TrackPointExtension>
        </extensions>
      </trkpt>
      <trkpt lat="35.708635691553354" lon="139.67959281988442">
        <ele>39.599998474121094</ele>
        <time>2025-12-27T06:21:07Z</time>
        <extensions>
          <gpxtpx:TrackPointExtension>
            <gpxtpx:hr>129</gpxtpx:hr>
          </gpxtpx:TrackPointExtension>
        </extensions>
      </trkpt>
      <trkpt lat="35.7086590770632" lon="139.67962374910712">
        <ele>39.599998474121094</ele>
        <time>2025-12-27T06:21:08Z</time>
        <extensions>
          <gpxtpx:TrackPointExtension>
            <gpxtpx:hr>129</gpxtpx:hr>
          </gpxtpx:TrackPointExtension>
        </extensions>
      </trkpt>
      <trkpt lat="35.70867617614567" lon="139.6796580310911">
        <ele>39.400001525878906</ele>
        <time>2025-12-27T06:21:09Z</time>
        <extensions>
          <gpxtpx:TrackPointExtension>
            <gpxtpx:hr>129</gpxtpx:hr>
          </gpxtpx:TrackPointExtension>
        </extensions>
      </trkpt>
      <trkpt lat="35.7086886651814" lon="139.67968887649477">
        <ele>39.400001525878906</ele>
        <time>2025-12-27T06:21:10Z</time>
        <extensions>
          <gpxtpx:TrackPointExtension>
            <gpxtpx:hr>130</gpxtpx:hr>
          </gpxtpx:TrackPointExtension>
        </extensions>
      </trkpt>
      <trkpt lat="35.708697717636824" lon="139.6797235775739">
        <ele>39.599998474121094</ele>
        <time>2025-12-27T06:21:11Z</time>
        <extensions>
          <gpxtpx:TrackPointExtension>
            <gpxtpx:hr>130</gpxtpx:hr>
          </gpxtpx:TrackPointExtension>
        </extensions>
      </trkpt>
      <trkpt lat="35.708707105368376" lon="139.67974931001663">
        <ele>39.599998474121094</ele>
        <time>2025-12-27T06:21:12Z</time>
        <extensions>
          <gpxtpx:TrackPointExtension>
            <gpxtpx:hr>130</gpxtpx:hr>
          </gpxtpx:TrackPointExtension>
        </extensions>
      </trkpt>
      <trkpt lat="35.70872051641345" lon="139.6797774732113">
        <ele>39.599998474121094</ele>
        <time>2025-12-27T06:21:13Z</time>
        <extensions>
          <gpxtpx:TrackPointExtension>
            <gpxtpx:hr>130</gpxtpx:hr>
          </gpxtpx:TrackPointExtension>
        </extensions>
      </trkpt>
      <trkpt lat="35.70873660966754" lon="139.67981435358524">
        <ele>39.599998474121094</ele>
        <time>2025-12-27T06:21:14Z</time>
        <extensions>
          <gpxtpx:TrackPointExtension>
            <gpxtpx:hr>130</gpxtpx:hr>
          </gpxtpx:TrackPointExtension>
        </extensions>
      </trkpt>
      <trkpt lat="35.708746667951345" lon="139.6798491384834">
        <ele>39.599998474121094</ele>
        <time>2025-12-27T06:21:15Z</time>
        <extensions>
          <gpxtpx:TrackPointExtension>
            <gpxtpx:hr>130</gpxtpx:hr>
          </gpxtpx:TrackPointExtension>
        </extensions>
      </trkpt>
      <trkpt lat="35.70875907316804" lon="139.67988249845803">
        <ele>39.599998474121094</ele>
        <time>2025-12-27T06:21:16Z</time>
        <extensions>
          <gpxtpx:TrackPointExtension>
            <gpxtpx:hr>130</gpxtpx:hr>
          </gpxtpx:TrackPointExtension>
        </extensions>
      </trkpt>
      <trkpt lat="35.70877273567021" lon="139.6799165289849">
        <ele>39.599998474121094</ele>
        <time>2025-12-27T06:21:17Z</time>
        <extensions>
          <gpxtpx:TrackPointExtension>
            <gpxtpx:hr>131</gpxtpx:hr>
          </gpxtpx:TrackPointExtension>
        </extensions>
      </trkpt>
      <trkpt lat="35.708788242191076" lon="139.6799508947879">
        <ele>39.599998474121094</ele>
        <time>2025-12-27T06:21:18Z</time>
        <extensions>
          <gpxtpx:TrackPointExtension>
            <gpxtpx:hr>131</gpxtpx:hr>
          </gpxtpx:TrackPointExtension>
        </extensions>
      </trkpt>
      <trkpt lat="35.70880550891161" lon="139.67998249456286">
        <ele>39.599998474121094</ele>
        <time>2025-12-27T06:21:19Z</time>
        <extensions>
          <gpxtpx:TrackPointExtension>
            <gpxtpx:hr>131</gpxtpx:hr>
          </gpxtpx:TrackPointExtension>
        </extensions>
      </trkpt>
      <trkpt lat="35.70881774649024" lon="139.68001384288073">
        <ele>39.599998474121094</ele>
        <time>2025-12-27T06:21:20Z</time>
        <extensions>
          <gpxtpx:TrackPointExtension>
            <gpxtpx:hr>131</gpxtpx:hr>
          </gpxtpx:TrackPointExtension>
        </extensions>
      </trkpt>
      <trkpt lat="35.70883970707655" lon="139.68004703521729">
        <ele>39.599998474121094</ele>
        <time>2025-12-27T06:21:21Z</time>
        <extensions>
          <gpxtpx:TrackPointExtension>
            <gpxtpx:hr>131</gpxtpx:hr>
          </gpxtpx:TrackPointExtension>
        </extensions>
      </trkpt>
      <trkpt lat="35.70885454304516" lon="139.68008073046803">
        <ele>39.599998474121094</ele>
        <time>2025-12-27T06:21:22Z</time>
        <extensions>
          <gpxtpx:TrackPointExtension>
            <gpxtpx:hr>131</gpxtpx:hr>
          </gpxtpx:TrackPointExtension>
        </extensions>
      </trkpt>
      <trkpt lat="35.70886862464249" lon="139.68011165969074">
        <ele>39.599998474121094</ele>
        <time>2025-12-27T06:21:23Z</time>
        <extensions>
          <gpxtpx:TrackPointExtension>
            <gpxtpx:hr>130</gpxtpx:hr>
          </gpxtpx:TrackPointExtension>
        </extensions>
      </trkpt>
      <trkpt lat="35.70888413116336" lon="139.68014728277922">
        <ele>39.599998474121094</ele>
        <time>2025-12-27T06:21:24Z</time>
        <extensions>
          <gpxtpx:TrackPointExtension>
            <gpxtpx:hr>131</gpxtpx:hr>
          </gpxtpx:TrackPointExtension>
        </extensions>
      </trkpt>
      <trkpt lat="35.70889846421778" lon="139.68017335049808">
        <ele>39.599998474121094</ele>
        <time>2025-12-27T06:21:25Z</time>
        <extensions>
          <gpxtpx:TrackPointExtension>
            <gpxtpx:hr>131</gpxtpx:hr>
          </gpxtpx:TrackPointExtension>
        </extensions>
      </trkpt>
      <trkpt lat="35.708916233852506" lon="139.6802067104727">
        <ele>39.599998474121094</ele>
        <time>2025-12-27T06:21:26Z</time>
        <extensions>
          <gpxtpx:TrackPointExtension>
            <gpxtpx:hr>131</gpxtpx:hr>
          </gpxtpx:TrackPointExtension>
        </extensions>
      </trkpt>
      <trkpt lat="35.70892830379307" lon="139.68023914843798">
        <ele>39.79999923706055</ele>
        <time>2025-12-27T06:21:27Z</time>
        <extensions>
          <gpxtpx:TrackPointExtension>
            <gpxtpx:hr>131</gpxtpx:hr>
          </gpxtpx:TrackPointExtension>
        </extensions>
      </trkpt>
      <trkpt lat="35.7089373562485" lon="139.68026680871844">
        <ele>39.79999923706055</ele>
        <time>2025-12-27T06:21:28Z</time>
        <extensions>
          <gpxtpx:TrackPointExtension>
            <gpxtpx:hr>132</gpxtpx:hr>
          </gpxtpx:TrackPointExtension>
        </extensions>
      </trkpt>
      <trkpt lat="35.708949426189065" lon="139.68029924668372">
        <ele>39.79999923706055</ele>
        <time>2025-12-27T06:21:29Z</time>
        <extensions>
          <gpxtpx:TrackPointExtension>
            <gpxtpx:hr>132</gpxtpx:hr>
          </gpxtpx:TrackPointExtension>
        </extensions>
      </trkpt>
      <trkpt lat="35.70896635763347" lon="139.68033386394382">
        <ele>39.79999923706055</ele>
        <time>2025-12-27T06:21:30Z</time>
        <extensions>
          <gpxtpx:TrackPointExtension>
            <gpxtpx:hr>132</gpxtpx:hr>
          </gpxtpx:TrackPointExtension>
        </extensions>
      </trkpt>
      <trkpt lat="35.70897893048823" lon="139.6803678944707">
        <ele>39.79999923706055</ele>
        <time>2025-12-27T06:21:31Z</time>
        <extensions>
          <gpxtpx:TrackPointExtension>
            <gpxtpx:hr>132</gpxtpx:hr>
          </gpxtpx:TrackPointExtension>
        </extensions>
      </trkpt>
      <trkpt lat="35.708994437009096" lon="139.68039773404598">
        <ele>39.79999923706055</ele>
        <time>2025-12-27T06:21:32Z</time>
        <extensions>
          <gpxtpx:TrackPointExtension>
            <gpxtpx:hr>132</gpxtpx:hr>
          </gpxtpx:TrackPointExtension>
        </extensions>
      </trkpt>
      <trkpt lat="35.70900650694966" lon="139.6804405655712">
        <ele>39.79999923706055</ele>
        <time>2025-12-27T06:21:33Z</time>
        <extensions>
          <gpxtpx:TrackPointExtension>
            <gpxtpx:hr>132</gpxtpx:hr>
          </gpxtpx:TrackPointExtension>
        </extensions>
      </trkpt>
      <trkpt lat="35.70902360603213" lon="139.68047224916518">
        <ele>39.79999923706055</ele>
        <time>2025-12-27T06:21:34Z</time>
        <extensions>
          <gpxtpx:TrackPointExtension>
            <gpxtpx:hr>131</gpxtpx:hr>
          </gpxtpx:TrackPointExtension>
        </extensions>
      </trkpt>
      <trkpt lat="35.70904288440943" lon="139.68050468713045">
        <ele>39.79999923706055</ele>
        <time>2025-12-27T06:21:35Z</time>
        <extensions>
          <gpxtpx:TrackPointExtension>
            <gpxtpx:hr>132</gpxtpx:hr>
          </gpxtpx:TrackPointExtension>
        </extensions>
      </trkpt>
      <trkpt lat="35.70905411615968" lon="139.68053963966668">
        <ele>39.79999923706055</ele>
        <time>2025-12-27T06:21:36Z</time>
        <extensions>
          <gpxtpx:TrackPointExtension>
            <gpxtpx:hr>132</gpxtpx:hr>
          </gpxtpx:TrackPointExtension>
        </extensions>
      </trkpt>
      <trkpt lat="35.70907289162278" lon="139.68056738376617">
        <ele>39.79999923706055</ele>
        <time>2025-12-27T06:21:37Z</time>
        <extensions>
          <gpxtpx:TrackPointExtension>
            <gpxtpx:hr>132</gpxtpx:hr>
          </gpxtpx:TrackPointExtension>
        </extensions>
      </trkpt>
      <trkpt lat="35.709092170000076" lon="139.68060091137886">
        <ele>39.79999923706055</ele>
        <time>2025-12-27T06:21:38Z</time>
        <extensions>
          <gpxtpx:TrackPointExtension>
            <gpxtpx:hr>132</gpxtpx:hr>
          </gpxtpx:TrackPointExtension>
        </extensions>
      </trkpt>
      <trkpt lat="35.709110610187054" lon="139.68062505126">
        <ele>39.79999923706055</ele>
        <time>2025-12-27T06:21:39Z</time>
        <extensions>
          <gpxtpx:TrackPointExtension>
            <gpxtpx:hr>133</gpxtpx:hr>
          </gpxtpx:TrackPointExtension>
        </extensions>
      </trkpt>
      <trkpt lat="35.709131229668856" lon="139.68065832741559">
        <ele>39.79999923706055</ele>
        <time>2025-12-27T06:21:40Z</time>
        <extensions>
          <gpxtpx:TrackPointExtension>
            <gpxtpx:hr>133</gpxtpx:hr>
          </gpxtpx:TrackPointExtension>
        </extensions>
      </trkpt>
      <trkpt lat="35.70915293879807" lon="139.68069579452276">
        <ele>39.599998474121094</ele>
        <time>2025-12-27T06:21:41Z</time>
        <extensions>
          <gpxtpx:TrackPointExtension>
            <gpxtpx:hr>133</gpxtpx:hr>
          </gpxtpx:TrackPointExtension>
        </extensions>
      </trkpt>
      <trkpt lat="35.709168361499906" lon="139.68072831630707">
        <ele>39.599998474121094</ele>
        <time>2025-12-27T06:21:42Z</time>
        <extensions>
          <gpxtpx:TrackPointExtension>
            <gpxtpx:hr>134</gpxtpx:hr>
          </gpxtpx:TrackPointExtension>
        </extensions>
      </trkpt>
      <trkpt lat="35.70918520912528" lon="139.68077047728002">
        <ele>39.79999923706055</ele>
        <time>2025-12-27T06:21:43Z</time>
        <extensions>
          <gpxtpx:TrackPointExtension>
            <gpxtpx:hr>134</gpxtpx:hr>
          </gpxtpx:TrackPointExtension>
        </extensions>
      </trkpt>
      <trkpt lat="35.70920222438872" lon="139.68080249615014">
        <ele>39.79999923706055</ele>
        <time>2025-12-27T06:21:44Z</time>
        <extensions>
          <gpxtpx:TrackPointExtension>
            <gpxtpx:hr>135</gpxtpx:hr>
          </gpxtpx:TrackPointExtension>
        </extensions>
      </trkpt>
      <trkpt lat="35.70921630598605" lon="139.6808383706957">
        <ele>39.79999923706055</ele>
        <time>2025-12-27T06:21:45Z</time>
        <extensions>
          <gpxtpx:TrackPointExtension>
            <gpxtpx:hr>136</gpxtpx:hr>
          </gpxtpx:TrackPointExtension>
        </extensions>
      </trkpt>
      <trkpt lat="35.70923407562077" lon="139.68086997047067">
        <ele>39.599998474121094</ele>
        <time>2025-12-27T06:21:46Z</time>
        <extensions>
          <gpxtpx:TrackPointExtension>
            <gpxtpx:hr>136</gpxtpx:hr>
          </gpxtpx:TrackPointExtension>
        </extensions>
      </trkpt>
      <trkpt lat="35.70924773812294" lon="139.68090031296015">
        <ele>39.79999923706055</ele>
        <time>2025-12-27T06:21:47Z</time>
        <extensions>
          <gpxtpx:TrackPointExtension>
            <gpxtpx:hr>137</gpxtpx:hr>
          </gpxtpx:TrackPointExtension>
        </extensions>
      </trkpt>
      <trkpt lat="35.70925997570157" lon="139.68093627132475">
        <ele>39.79999923706055</ele>
        <time>2025-12-27T06:21:48Z</time>
        <extensions>
          <gpxtpx:TrackPointExtension>
            <gpxtpx:hr>137</gpxtpx:hr>
          </gpxtpx:TrackPointExtension>
        </extensions>
      </trkpt>
      <trkpt lat="35.70927456021309" lon="139.68096745200455">
        <ele>39.79999923706055</ele>
        <time>2025-12-27T06:21:49Z</time>
        <extensions>
          <gpxtpx:TrackPointExtension>
            <gpxtpx:hr>137</gpxtpx:hr>
          </gpxtpx:TrackPointExtension>
        </extensions>
      </trkpt>
      <trkpt lat="35.70929316803813" lon="139.6809915918857">
        <ele>39.79999923706055</ele>
        <time>2025-12-27T06:21:50Z</time>
        <extensions>
          <gpxtpx:TrackPointExtension>
            <gpxtpx:hr>137</gpxtpx:hr>
          </gpxtpx:TrackPointExtension>
        </extensions>
      </trkpt>
      <trkpt lat="35.70930766873062" lon="139.68101548030972">
        <ele>39.79999923706055</ele>
        <time>2025-12-27T06:21:51Z</time>
        <extensions>
          <gpxtpx:TrackPointExtension>
            <gpxtpx:hr>137</gpxtpx:hr>
          </gpxtpx:TrackPointExtension>
        </extensions>
      </trkpt>
      <trkpt lat="35.70928973145783" lon="139.6810442302376">
        <ele>40</ele>
        <time>2025-12-27T06:21:52Z</time>
        <extensions>
          <gpxtpx:TrackPointExtension>
            <gpxtpx:hr>137</gpxtpx:hr>
          </gpxtpx:TrackPointExtension>
        </extensions>
      </trkpt>
      <trkpt lat="35.70927707478404" lon="139.68106652610004">
        <ele>40</ele>
        <time>2025-12-27T06:21:53Z</time>
        <extensions>
          <gpxtpx:TrackPointExtension>
            <gpxtpx:hr>137</gpxtpx:hr>
          </gpxtpx:TrackPointExtension>
        </extensions>
      </trkpt>
      <trkpt lat="35.70926383137703" lon="139.6810904983431">
        <ele>39.79999923706055</ele>
        <time>2025-12-27T06:21:54Z</time>
        <extensions>
          <gpxtpx:TrackPointExtension>
            <gpxtpx:hr>137</gpxtpx:hr>
          </gpxtpx:TrackPointExtension>
        </extensions>
      </trkpt>
      <trkpt lat="35.70924027822912" lon="139.68111095018685">
        <ele>39.79999923706055</ele>
        <time>2025-12-27T06:21:55Z</time>
        <extensions>
          <gpxtpx:TrackPointExtension>
            <gpxtpx:hr>137</gpxtpx:hr>
          </gpxtpx:TrackPointExtension>
        </extensions>
      </trkpt>
      <trkpt lat="35.709220664575696" lon="139.68113332986832">
        <ele>39.79999923706055</ele>
        <time>2025-12-27T06:21:56Z</time>
        <extensions>
          <gpxtpx:TrackPointExtension>
            <gpxtpx:hr>137</gpxtpx:hr>
          </gpxtpx:TrackPointExtension>
        </extensions>
      </trkpt>
      <trkpt lat="35.7092016376555" lon="139.6811515185982">
        <ele>39.79999923706055</ele>
        <time>2025-12-27T06:21:57Z</time>
        <extensions>
          <gpxtpx:TrackPointExtension>
            <gpxtpx:hr>137</gpxtpx:hr>
          </gpxtpx:TrackPointExtension>
        </extensions>
      </trkpt>
      <trkpt lat="35.70918269455433" lon="139.68117699958384">
        <ele>39.79999923706055</ele>
        <time>2025-12-27T06:21:58Z</time>
        <extensions>
          <gpxtpx:TrackPointExtension>
            <gpxtpx:hr>137</gpxtpx:hr>
          </gpxtpx:TrackPointExtension>
        </extensions>
      </trkpt>
      <trkpt lat="35.709165846928954" lon="139.68120742589235">
        <ele>39.599998474121094</ele>
        <time>2025-12-27T06:21:59Z</time>
        <extensions>
          <gpxtpx:TrackPointExtension>
            <gpxtpx:hr>137</gpxtpx:hr>
          </gpxtpx:TrackPointExtension>
        </extensions>
      </trkpt>
      <trkpt lat="35.70914187468588" lon="139.68123667873442">
        <ele>39.599998474121094</ele>
        <time>2025-12-27T06:22:00Z</time>
        <extensions>
          <gpxtpx:TrackPointExtension>
            <gpxtpx:hr>138</gpxtpx:hr>
          </gpxtpx:TrackPointExtension>
        </extensions>
      </trkpt>
      <trkpt lat="35.70911614224315" lon="139.6812617406249">
        <ele>39.79999923706055</ele>
        <time>2025-12-27T06:22:01Z</time>
        <extensions>
          <gpxtpx:TrackPointExtension>
            <gpxtpx:hr>137</gpxtpx:hr>
          </gpxtpx:TrackPointExtension>
        </extensions>
      </trkpt>
      <trkpt lat="35.709090577438474" lon="139.68128713779151">
        <ele>39.79999923706055</ele>
        <time>2025-12-27T06:22:02Z</time>
        <extensions>
          <gpxtpx:TrackPointExtension>
            <gpxtpx:hr>137</gpxtpx:hr>
          </gpxtpx:TrackPointExtension>
        </extensions>
      </trkpt>
      <trkpt lat="35.7090684492141" lon="139.68131127767265">
        <ele>39.79999923706055</ele>
        <time>2025-12-27T06:22:03Z</time>
        <extensions>
          <gpxtpx:TrackPointExtension>
            <gpxtpx:hr>137</gpxtpx:hr>
          </gpxtpx:TrackPointExtension>
        </extensions>
      </trkpt>
      <trkpt lat="35.70904556661844" lon="139.6813349146396">
        <ele>39.79999923706055</ele>
        <time>2025-12-27T06:22:04Z</time>
        <extensions>
          <gpxtpx:TrackPointExtension>
            <gpxtpx:hr>137</gpxtpx:hr>
          </gpxtpx:TrackPointExtension>
        </extensions>
      </trkpt>
      <trkpt lat="35.70901413448155" lon="139.6813621558249">
        <ele>40</ele>
        <time>2025-12-27T06:22:05Z</time>
        <extensions>
          <gpxtpx:TrackPointExtension>
            <gpxtpx:hr>137</gpxtpx:hr>
          </gpxtpx:TrackPointExtension>
        </extensions>
      </trkpt>
      <trkpt lat="35.7089925929904" lon="139.68139618635178">
        <ele>39.79999923706055</ele>
        <time>2025-12-27T06:22:06Z</time>
        <extensions>
          <gpxtpx:TrackPointExtension>
            <gpxtpx:hr>137</gpxtpx:hr>
          </gpxtpx:TrackPointExtension>
        </extensions>
      </trkpt>
      <trkpt lat="35.70896049030125" lon="139.68142041005194">
        <ele>39.79999923706055</ele>
        <time>2025-12-27T06:22:07Z</time>
        <extensions>
          <gpxtpx:TrackPointExtension>
            <gpxtpx:hr>137</gpxtpx:hr>
          </gpxtpx:TrackPointExtension>
        </extensions>
      </trkpt>
      <trkpt lat="35.70892914198339" lon="139.68143759295344">
        <ele>39.79999923706055</ele>
        <time>2025-12-27T06:22:08Z</time>
        <extensions>
          <gpxtpx:TrackPointExtension>
            <gpxtpx:hr>137</gpxtpx:hr>
          </gpxtpx:TrackPointExtension>
        </extensions>
      </trkpt>
      <trkpt lat="35.708900056779385" lon="139.68145963735878">
        <ele>39.79999923706055</ele>
        <time>2025-12-27T06:22:09Z</time>
        <extensions>
          <gpxtpx:TrackPointExtension>
            <gpxtpx:hr>136</gpxtpx:hr>
          </gpxtpx:TrackPointExtension>
        </extensions>
      </trkpt>
      <trkpt lat="35.70887063629925" lon="139.6814815979451">
        <ele>39.79999923706055</ele>
        <time>2025-12-27T06:22:10Z</time>
        <extensions>
          <gpxtpx:TrackPointExtension>
            <gpxtpx:hr>136</gpxtpx:hr>
          </gpxtpx:TrackPointExtension>
        </extensions>
      </trkpt>
      <trkpt lat="35.70884515531361" lon="139.68150598928332">
        <ele>39.79999923706055</ele>
        <time>2025-12-27T06:22:11Z</time>
        <extensions>
          <gpxtpx:TrackPointExtension>
            <gpxtpx:hr>136</gpxtpx:hr>
          </gpxtpx:TrackPointExtension>
        </extensions>
      </trkpt>
      <trkpt lat="35.70882034488022" lon="139.6815307997167">
        <ele>40</ele>
        <time>2025-12-27T06:22:12Z</time>
        <extensions>
          <gpxtpx:TrackPointExtension>
            <gpxtpx:hr>136</gpxtpx:hr>
          </gpxtpx:TrackPointExtension>
        </extensions>
      </trkpt>
      <trkpt lat="35.70879620499909" lon="139.68155284412205">
        <ele>40</ele>
        <time>2025-12-27T06:22:13Z</time>
        <extensions>
          <gpxtpx:TrackPointExtension>
            <gpxtpx:hr>135</gpxtpx:hr>
          </gpxtpx:TrackPointExtension>
        </extensions>
      </trkpt>
      <trkpt lat="35.70877172984183" lon="139.68157421797514">
        <ele>40</ele>
        <time>2025-12-27T06:22:14Z</time>
        <extensions>
          <gpxtpx:TrackPointExtension>
            <gpxtpx:hr>135</gpxtpx:hr>
          </gpxtpx:TrackPointExtension>
        </extensions>
      </trkpt>
      <trkpt lat="35.70874239318073" lon="139.6816010400653">
        <ele>40</ele>
        <time>2025-12-27T06:22:15Z</time>
        <extensions>
          <gpxtpx:TrackPointExtension>
            <gpxtpx:hr>135</gpxtpx:hr>
          </gpxtpx:TrackPointExtension>
        </extensions>
      </trkpt>
      <trkpt lat="35.70872009731829" lon="139.68163532204926">
        <ele>40</ele>
        <time>2025-12-27T06:22:16Z</time>
        <extensions>
          <gpxtpx:TrackPointExtension>
            <gpxtpx:hr>136</gpxtpx:hr>
          </gpxtpx:TrackPointExtension>
        </extensions>
      </trkpt>
      <trkpt lat="35.7086939457804" lon="139.68166692182422">
        <ele>40</ele>
        <time>2025-12-27T06:22:17Z</time>
        <extensions>
          <gpxtpx:TrackPointExtension>
            <gpxtpx:hr>136</gpxtpx:hr>
          </gpxtpx:TrackPointExtension>
        </extensions>
      </trkpt>
      <trkpt lat="35.70866913534701" lon="139.68169106170535">
        <ele>40.20000076293945</ele>
        <time>2025-12-27T06:22:18Z</time>
        <extensions>
          <gpxtpx:TrackPointExtension>
            <gpxtpx:hr>137</gpxtpx:hr>
          </gpxtpx:TrackPointExtension>
        </extensions>
      </trkpt>
      <trkpt lat="35.7086487673223" lon="139.68171880580485">
        <ele>40.20000076293945</ele>
        <time>2025-12-27T06:22:19Z</time>
        <extensions>
          <gpxtpx:TrackPointExtension>
            <gpxtpx:hr>137</gpxtpx:hr>
          </gpxtpx:TrackPointExtension>
        </extensions>
      </trkpt>
      <trkpt lat="35.70861431770027" lon="139.68174160458148">
        <ele>40.20000076293945</ele>
        <time>2025-12-27T06:22:20Z</time>
        <extensions>
          <gpxtpx:TrackPointExtension>
            <gpxtpx:hr>137</gpxtpx:hr>
          </gpxtpx:TrackPointExtension>
        </extensions>
      </trkpt>
      <trkpt lat="35.708588333800435" lon="139.6817662473768">
        <ele>40.20000076293945</ele>
        <time>2025-12-27T06:22:21Z</time>
        <extensions>
          <gpxtpx:TrackPointExtension>
            <gpxtpx:hr>137</gpxtpx:hr>
          </gpxtpx:TrackPointExtension>
        </extensions>
      </trkpt>
      <trkpt lat="35.70856746286154" lon="139.6817873697728">
        <ele>40.400001525878906</ele>
        <time>2025-12-27T06:22:22Z</time>
        <extensions>
          <gpxtpx:TrackPointExtension>
            <gpxtpx:hr>137</gpxtpx:hr>
          </gpxtpx:TrackPointExtension>
        </extensions>
      </trkpt>
      <trkpt lat="35.70854851976037" lon="139.68180899508297">
        <ele>40.400001525878906</ele>
        <time>2025-12-27T06:22:23Z</time>
        <extensions>
          <gpxtpx:TrackPointExtension>
            <gpxtpx:hr>137</gpxtpx:hr>
          </gpxtpx:TrackPointExtension>
        </extensions>
      </trkpt>
      <trkpt lat="35.7085330132395" lon="139.68183397315443">
        <ele>40.599998474121094</ele>
        <time>2025-12-27T06:22:24Z</time>
        <extensions>
          <gpxtpx:TrackPointExtension>
            <gpxtpx:hr>137</gpxtpx:hr>
          </gpxtpx:TrackPointExtension>
        </extensions>
      </trkpt>
      <trkpt lat="35.70851641707122" lon="139.6818624716252">
        <ele>40.79999923706055</ele>
        <time>2025-12-27T06:22:25Z</time>
        <extensions>
          <gpxtpx:TrackPointExtension>
            <gpxtpx:hr>138</gpxtpx:hr>
          </gpxtpx:TrackPointExtension>
        </extensions>
      </trkpt>
      <trkpt lat="35.7085036765784" lon="139.68188242055476">
        <ele>41</ele>
        <time>2025-12-27T06:22:26Z</time>
        <extensions>
          <gpxtpx:TrackPointExtension>
            <gpxtpx:hr>138</gpxtpx:hr>
          </gpxtpx:TrackPointExtension>
        </extensions>
      </trkpt>
      <trkpt lat="35.708495462313294" lon="139.6818954963237">
        <ele>41.20000076293945</ele>
        <time>2025-12-27T06:22:27Z</time>
        <extensions>
          <gpxtpx:TrackPointExtension>
            <gpxtpx:hr>138</gpxtpx:hr>
          </gpxtpx:TrackPointExtension>
        </extensions>
      </trkpt>
      <trkpt lat="35.708503341302276" lon="139.6818846836686">
        <time>2025-12-27T06:22:28Z</time>
      </trkpt>
    </trkseg>
  </trk>
</gpx>