<gpx xmlns:ns3="http://www.garmin.com/xmlschemas/TrackPointExtension/v1" xmlns="http://www.topografix.com/GPX/1/1" xmlns:xsi="http://www.w3.org/2001/XMLSchema-instance" xmlns:ns2="http://www.garmin.com/xmlschemas/GpxExtensions/v3" creator="Garmin Connect" version="1.1" xsi:schemaLocation="http://www.topografix.com/GPX/1/1 http://www.topografix.com/GPX/11.xsd">
  <extensions>
<distance></distance>
<average_hr>80.0</average_hr>
<average_speed></average_speed>
<start_time>2025-09-02T13:28:48+00:00</start_time>
<end_time>2025-09-02T13:47:46.946000+00:00</end_time>
<moving_time>1138.946</moving_time>
<elapsed_time>1138.946</elapsed_time>
</extensions>
<metadata>
    <link href="connect.garmin.com">
      <text>Garmin Connect</text>
    </link>
    <time>2025-09-02T13:28:48.000Z</time>
  </metadata>
  <trk>
    <name>ヨガ</name>
    <type>yoga</type>
    <trkseg/>
  </trk>
</gpx>
