<gpx xmlns:ns3="http://www.garmin.com/xmlschemas/TrackPointExtension/v1" xmlns="http://www.topografix.com/GPX/1/1" xmlns:xsi="http://www.w3.org/2001/XMLSchema-instance" xmlns:ns2="http://www.garmin.com/xmlschemas/GpxExtensions/v3" creator="Garmin Connect" version="1.1" xsi:schemaLocation="http://www.topografix.com/GPX/1/1 http://www.topografix.com/GPX/11.xsd">
  <extensions>
<distance>825.0</distance>
<average_hr>121.0</average_hr>
<average_speed>0.44699999690055847</average_speed>
<start_time>2026-01-18T04:20:03+00:00</start_time>
<end_time>2026-01-18T04:55:36.519000+00:00</end_time>
<moving_time>1844.896</moving_time>
<elapsed_time>2141.733</elapsed_time>
</extensions>
<metadata>
    <link href="connect.garmin.com">
      <text>Garmin Connect</text>
    </link>
    <time>2026-01-18T04:20:03.000Z</time>
  </metadata>
  <trk>
    <name>プールスイム</name>
    <type>lap_swimming</type>
    <trkseg/>
  </trk>
</gpx>
