<gpx xmlns:ns3="http://www.garmin.com/xmlschemas/TrackPointExtension/v1" xmlns="http://www.topografix.com/GPX/1/1" xmlns:xsi="http://www.w3.org/2001/XMLSchema-instance" xmlns:ns2="http://www.garmin.com/xmlschemas/GpxExtensions/v3" creator="Garmin Connect" version="1.1" xsi:schemaLocation="http://www.topografix.com/GPX/1/1 http://www.topografix.com/GPX/11.xsd">
  <extensions>
<distance>0.0</distance>
<average_hr>103.0</average_hr>
<average_speed>0.0</average_speed>
<start_time>2026-04-05T05:21:27+00:00</start_time>
<end_time>2026-04-05T05:55:25.327000+00:00</end_time>
<moving_time>2038.327</moving_time>
<elapsed_time>2038.327</elapsed_time>
</extensions>
<metadata>
    <link href="connect.garmin.com">
      <text>Garmin Connect</text>
    </link>
    <time>2026-04-05T05:21:27.000Z</time>
  </metadata>
  <trk>
    <name>筋トレ</name>
    <type>strength_training</type>
    <trkseg/>
  </trk>
</gpx>
