<gpx xmlns:ns3="http://www.garmin.com/xmlschemas/TrackPointExtension/v1" xmlns="http://www.topografix.com/GPX/1/1" xmlns:xsi="http://www.w3.org/2001/XMLSchema-instance" xmlns:ns2="http://www.garmin.com/xmlschemas/GpxExtensions/v3" creator="Garmin Connect" version="1.1" xsi:schemaLocation="http://www.topografix.com/GPX/1/1 http://www.topografix.com/GPX/11.xsd">
  <extensions>
<distance>7053.85</distance>
<average_hr>124.0</average_hr>
<average_speed>3.0390000343322754</average_speed>
<start_time>2026-04-25T06:16:54+00:00</start_time>
<end_time>2026-04-25T06:55:35.037000+00:00</end_time>
<moving_time>2316.243</moving_time>
<elapsed_time>2321.037</elapsed_time>
</extensions>
<metadata>
    <link href="connect.garmin.com">
      <text>Garmin Connect</text>
    </link>
    <time>2026-04-25T06:16:54.000Z</time>
  </metadata>
  <trk>
    <name>トレッドミル</name>
    <type>treadmill_running</type>
    <trkseg/>
  </trk>
</gpx>
