<gpx xmlns:ns3="http://www.garmin.com/xmlschemas/TrackPointExtension/v1" xmlns="http://www.topografix.com/GPX/1/1" xmlns:xsi="http://www.w3.org/2001/XMLSchema-instance" xmlns:ns2="http://www.garmin.com/xmlschemas/GpxExtensions/v3" creator="Garmin Connect" version="1.1" xsi:schemaLocation="http://www.topografix.com/GPX/1/1 http://www.topografix.com/GPX/11.xsd">
  <extensions>
<distance>5713.86</distance>
<average_hr>125.0</average_hr>
<average_speed>3.0580000877380376</average_speed>
<start_time>2026-05-10T07:22:43+00:00</start_time>
<end_time>2026-05-10T07:53:51.613000+00:00</end_time>
<moving_time>1862.354</moving_time>
<elapsed_time>1868.613</elapsed_time>
</extensions>
<metadata>
    <link href="connect.garmin.com">
      <text>Garmin Connect</text>
    </link>
    <time>2026-05-10T07:22:43.000Z</time>
  </metadata>
  <trk>
    <name>トレッドミル</name>
    <type>treadmill_running</type>
    <trkseg/>
  </trk>
</gpx>
