<gpx xmlns:ns3="http://www.garmin.com/xmlschemas/TrackPointExtension/v1" xmlns="http://www.topografix.com/GPX/1/1" xmlns:xsi="http://www.w3.org/2001/XMLSchema-instance" xmlns:ns2="http://www.garmin.com/xmlschemas/GpxExtensions/v3" creator="Garmin Connect" version="1.1" xsi:schemaLocation="http://www.topografix.com/GPX/1/1 http://www.topografix.com/GPX/11.xsd">
  <extensions>
<distance></distance>
<average_hr>99.0</average_hr>
<average_speed></average_speed>
<start_time>2026-05-10T06:31:28+00:00</start_time>
<end_time>2026-05-10T07:10:53.312000+00:00</end_time>
<moving_time>2365.312</moving_time>
<elapsed_time>2370.0</elapsed_time>
</extensions>
<metadata>
    <link href="connect.garmin.com">
      <text>Garmin Connect</text>
    </link>
    <time>2026-05-10T06:31:28.000Z</time>
  </metadata>
  <trk>
    <name>ヨガ</name>
    <type>yoga</type>
    <trkseg/>
  </trk>
</gpx>
