<gpx xmlns:ns3="http://www.garmin.com/xmlschemas/TrackPointExtension/v1" xmlns="http://www.topografix.com/GPX/1/1" xmlns:xsi="http://www.w3.org/2001/XMLSchema-instance" xmlns:ns2="http://www.garmin.com/xmlschemas/GpxExtensions/v3" creator="Garmin Connect" version="1.1" xsi:schemaLocation="http://www.topografix.com/GPX/1/1 http://www.topografix.com/GPX/11.xsd">
  <extensions>
<distance>10055.99</distance>
<average_hr>134.0</average_hr>
<average_speed>3.0510001182556157</average_speed>
<start_time>2026-06-13T05:59:00+00:00</start_time>
<end_time>2026-06-13T06:53:56.405000+00:00</end_time>
<moving_time>3290.356</moving_time>
<elapsed_time>3301.333</elapsed_time>
</extensions>
<metadata>
    <link href="connect.garmin.com">
      <text>Garmin Connect</text>
    </link>
    <time>2026-06-13T05:59:00.000Z</time>
  </metadata>
  <trk>
    <name>トレッドミル</name>
    <type>treadmill_running</type>
    <trkseg/>
  </trk>
</gpx>
