<gpx xmlns:ns3="http://www.garmin.com/xmlschemas/TrackPointExtension/v1" xmlns="http://www.topografix.com/GPX/1/1" xmlns:xsi="http://www.w3.org/2001/XMLSchema-instance" xmlns:ns2="http://www.garmin.com/xmlschemas/GpxExtensions/v3" creator="Garmin Connect" version="1.1" xsi:schemaLocation="http://www.topografix.com/GPX/1/1 http://www.topografix.com/GPX/11.xsd">
  <extensions>
<distance>5074.7</distance>
<average_hr>117.0</average_hr>
<average_speed>2.9619998931884766</average_speed>
<start_time>2026-07-19T07:21:48+00:00</start_time>
<end_time>2026-07-19T07:50:21.322000+00:00</end_time>
<moving_time>1711.024</moving_time>
<elapsed_time>1713.322</elapsed_time>
</extensions>
<metadata>
    <link href="connect.garmin.com">
      <text>Garmin Connect</text>
    </link>
    <time>2026-07-19T07:21:48.000Z</time>
  </metadata>
  <trk>
    <name>トレッドミル</name>
    <type>treadmill_running</type>
    <trkseg/>
  </trk>
</gpx>
