<gpx xmlns:ns3="http://www.garmin.com/xmlschemas/TrackPointExtension/v1" xmlns="http://www.topografix.com/GPX/1/1" xmlns:xsi="http://www.w3.org/2001/XMLSchema-instance" xmlns:ns2="http://www.garmin.com/xmlschemas/GpxExtensions/v3" creator="Garmin Connect" version="1.1" xsi:schemaLocation="http://www.topografix.com/GPX/1/1 http://www.topografix.com/GPX/11.xsd">
  <extensions>
<distance>0.0</distance>
<average_hr>110.0</average_hr>
<average_speed>0.0</average_speed>
<start_time>2026-08-02T08:32:41+00:00</start_time>
<end_time>2026-08-02T09:12:31.640000+00:00</end_time>
<moving_time>2390.64</moving_time>
<elapsed_time>2390.64</elapsed_time>
</extensions>
<metadata>
    <link href="connect.garmin.com">
      <text>Garmin Connect</text>
    </link>
    <time>2026-08-02T08:32:41.000Z</time>
  </metadata>
  <trk>
    <name>筋トレ</name>
    <type>strength_training</type>
    <trkseg/>
  </trk>
</gpx>
