<gpx xmlns:ns3="http://www.garmin.com/xmlschemas/TrackPointExtension/v1" xmlns="http://www.topografix.com/GPX/1/1" xmlns:xsi="http://www.w3.org/2001/XMLSchema-instance" xmlns:ns2="http://www.garmin.com/xmlschemas/GpxExtensions/v3" creator="Garmin Connect" version="1.1" xsi:schemaLocation="http://www.topografix.com/GPX/1/1 http://www.topografix.com/GPX/11.xsd">
  <extensions>
<distance>5575.41</distance>
<average_hr>121.0</average_hr>
<average_speed>3.000999927520752</average_speed>
<start_time>2026-08-23T07:22:23+00:00</start_time>
<end_time>2026-08-23T07:53:20.601000+00:00</end_time>
<moving_time>1851.262</moving_time>
<elapsed_time>1857.601</elapsed_time>
</extensions>
<metadata>
    <link href="connect.garmin.com">
      <text>Garmin Connect</text>
    </link>
    <time>2026-08-23T07:22:23.000Z</time>
  </metadata>
  <trk>
    <name>トレッドミル</name>
    <type>treadmill_running</type>
    <trkseg/>
  </trk>
</gpx>
